NORAD_CAT_ID,OBJECT_NAME,OBJECT_TYPE,EPOCH,MEAN_MOTION,ECCENTRICITY,INCLINATION,RA_OF_ASC_NODE,ARG_OF_PERICENTER,MEAN_ANOMALY,BSTAR,MEAN_MOTION_DOT,MEAN_MOTION_DDOT,TLE_LINE0,TLE_LINE1,TLE_LINE2,SEMIMAJOR_AXIS,PERIOD,APOGEE,PERIGEE,DECAYED
53390.0,STARLINK-4517,PAYLOAD,2023-01-27 18:36:13,15.08859215,0.0001704,53.2141,187.9407,66.8171,293.3001,0.00045513,6.967e-05,0.0,0 STARLINK-4517,1 53390U 22097C   23027.77516066  .00006967  00000-0  45513-3 0  9991,2 53390  53.2141 187.9407 0001704  66.8171 293.3001 15.08859215 26386,6917.821999999999,95.436,540.865,538.508,0.0
53390.0,STARLINK-4517,PAYLOAD,2023-01-28 13:40:51,15.08848707,0.0001649,53.2138,184.3716,76.8245,283.2931,5.8839e-05,6.49e-06,0.0,0 STARLINK-4517,1 53390U 22097C   23028.57003797  .00000649  00000-0  58839-4 0  9999,2 53390  53.2138 184.3716 0001649  76.8245 283.2931 15.08848707 26505,6917.854,95.437,540.86,538.578,0.0
53390.0,STARLINK-4517,PAYLOAD,2023-01-28 20:02:23,15.0885429,0.0001553,53.2145,183.1827,72.03,288.0861,9.7122e-05,1.259e-05,0.0,0 STARLINK-4517,1 53390U 22097C   23028.83499423  .00001259  00000-0  97122-4 0  9999,2 53390  53.2145 183.1827 0001553  72.0300 288.0861 15.08854290 27349,6917.837,95.437,540.776,538.627,0.0
53390.0,STARLINK-4517,PAYLOAD,2023-01-29 13:31:38,15.08840568,0.0001525,53.2138,179.9113,74.1218,285.9942,-2.428e-05,-6.74e-06,0.0,0 STARLINK-4517,1 53390U 22097C   23029.56363998 -.00000674  00000-0 -24280-4 0  9994,2 53390  53.2138 179.9113 0001525  74.1218 285.9942 15.08840568 26654,6917.879,95.438,540.799,538.689,0.0
53390.0,STARLINK-4517,PAYLOAD,2023-01-29 15:07:01,15.08840606,0.0001619,53.2136,179.6142,72.6426,287.4743,-3.2997e-05,-8.13e-06,0.0,0 STARLINK-4517,1 53390U 22097C   23029.62988006 -.00000813  00000-0 -32997-4 0  9993,2 53390  53.2136 179.6142 0001619  72.6426 287.4743 15.08840606 27468,6917.879,95.438,540.864,538.624,0.0
53390.0,STARLINK-4517,PAYLOAD,2023-01-30 13:22:25,15.08837329,0.000147,53.2143,175.4511,80.5249,279.5909,4.9241e-05,4.96e-06,0.0,0 STARLINK-4517,1 53390U 22097C   23030.55724225  .00000496  00000-0  49241-4 0  9993,2 53390  53.2143 175.4511 0001470  80.5249 279.5909 15.08837329 27606,6917.889,95.438,540.77,538.737,0.0
53390.0,STARLINK-4517,PAYLOAD,2023-01-31 02:05:30,15.0883817,0.0001444,53.2144,173.0722,86.9229,273.1929,9.8393e-05,1.278e-05,0.0,0 STARLINK-4517,1 53390U 22097C   23031.08716254  .00001278  00000-0  98393-4 0  9996,2 53390  53.2144 173.0722 0001444  86.9229 273.1929 15.08838170 26880,6917.886,95.438,540.75,538.752,0.0
53390.0,STARLINK-4517,PAYLOAD,2023-01-31 13:13:12,15.0884329,0.0001482,53.2151,170.9912,88.8,271.3162,0.00019054,2.746e-05,0.0,0 STARLINK-4517,1 53390U 22097C   23031.55084060  .00002746  00000-0  19054-3 0  9998,2 53390  53.2151 170.9912 0001482  88.8000 271.3162 15.08843290 27750,6917.87,95.437,540.761,538.71,0.0
53390.0,STARLINK-4517,PAYLOAD,2023-01-31 19:34:44,15.08848401,0.000153,53.2148,169.8013,91.0031,269.1136,0.00024148,3.558e-05,0.0,0 STARLINK-4517,1 53390U 22097C   23031.81579753  .00003558  00000-0  24148-3 0  9997,2 53390  53.2148 169.8013 0001530  91.0031 269.1136 15.08848401 27798,6917.855,95.437,540.778,538.661,0.0
53390.0,STARLINK-4517,PAYLOAD,2023-02-01 13:03:59,15.08841281,0.000141,53.2144,166.5301,87.248,272.8674,0.00010663,1.41e-05,0.0,0 STARLINK-4517,1 53390U 22097C   23032.54444093  .00001410  00000-0  10663-3 0  9998,2 53390  53.2144 166.5301 0001410  87.2480 272.8674 15.08841281 27900,6917.876,95.437,540.717,538.766,0.0
53390.0,STARLINK-4517,PAYLOAD,2023-02-01 14:39:22,15.0884389,0.0001447,53.2146,166.2328,88.6618,271.454,0.00014233,1.978e-05,0.0,0 STARLINK-4517,1 53390U 22097C   23032.61067981  .00001978  00000-0  14233-3 0  9999,2 53390  53.2146 166.2328 0001447  88.6618 271.4540 15.08843890 27114,6917.868,95.437,540.735,538.732,0.0
53390.0,STARLINK-4517,PAYLOAD,2023-02-02 12:54:46,15.08837191,0.0001514,53.2145,162.0708,86.3825,273.734,-4.4117e-05,-9.9e-06,0.0,0 STARLINK-4517,1 53390U 22097C   23033.53804384 -.00000990  00000-0 -44117-4 0  9997,2 53390  53.2145 162.0708 0001514  86.3825 273.7340 15.08837191 28053,6917.889,95.438,540.801,538.707,0.0
53390.0,STARLINK-4517,PAYLOAD,2023-02-02 20:51:42,15.08845931,0.0001238,53.2145,160.5822,90.9623,269.1511,9.0527e-05,1.153e-05,0.0,0 STARLINK-4517,1 53390U 22097C   23033.86923805  .00001153  00000-0  90527-4 0  9999,2 53390  53.2145 160.5822 0001238  90.9623 269.1511 15.08845931 27300,6917.862,95.437,540.584,538.871,0.0
53390.0,STARLINK-4517,PAYLOAD,2023-02-03 01:37:52,15.08824937,5.07e-05,53.2145,159.6912,87.1597,272.9453,-9.9327e-05,-1.867e-05,0.0,0 STARLINK-4517,1 53390U 22097C   23034.06796779 -.00001867  00000-0 -99327-4 0  9991,2 53390  53.2145 159.6912 0000507  87.1597 272.9453 15.08824937 27338,6917.926,95.439,540.142,539.441,0.0
53390.0,STARLINK-4517,PAYLOAD,2023-02-03 12:45:34,15.08835159,0.0001143,53.2139,157.6085,79.7969,280.3152,7.2916e-05,8.73e-06,0.0,0 STARLINK-4517,1 53390U 22097C   23034.53164858  .00000873  00000-0  72916-4 0  9999,2 53390  53.2139 157.6085 0001143  79.7969 280.3152 15.08835159 28201,6917.895,95.438,540.551,538.969,0.0
53390.0,STARLINK-4517,PAYLOAD,2023-02-03 14:20:57,15.08837903,0.0001177,53.2142,157.3114,81.0988,279.0137,0.00011693,1.573e-05,0.0,0 STARLINK-4517,1 53390U 22097C   23034.59788772  .00001573  00000-0  11693-3 0  9994,2 53390  53.2142 157.3114 0001177  81.0988 279.0137 15.08837903 27418,6917.887,95.438,540.566,538.938,0.0
53390.0,STARLINK-4517,PAYLOAD,2023-02-03 15:56:20,15.08839828,0.0001239,53.2147,157.0147,81.9452,278.168,0.00011111,1.481e-05,0.0,0 STARLINK-4517,1 53390U 22097C   23034.66412712  .00001481  00000-0  11111-3 0  9993,2 53390  53.2147 157.0147 0001239  81.9452 278.1680 15.08839828 28221,6917.881,95.438,540.603,538.889,0.0
53390.0,STARLINK-4517,PAYLOAD,2023-02-04 14:11:44,15.08854795,0.0001105,53.2142,152.8505,78.4485,281.6631,0.00045681,6.993e-05,0.0,0 STARLINK-4517,1 53390U 22097C   23035.59148286  .00006993  00000-0  45681-3 0  9990,2 53390  53.2142 152.8505 0001105  78.4485 281.6631 15.08854795 28366,6917.835,95.437,540.465,538.936,0.0
53390.0,STARLINK-4517,PAYLOAD,2023-02-04 18:57:53,15.08872973,0.0001158,53.2141,151.9582,74.8526,285.2594,0.001155,0.00018158,0.0,0 STARLINK-4517,1 53390U 22097C   23035.79019967  .00018158  00000-0  11550-2 0  9998,2 53390  53.2141 151.9582 0001158  74.8526 285.2594 15.08872973 27594,6917.78,95.435,540.446,538.844,0.0
53390.0,STARLINK-4517,PAYLOAD,2023-02-05 12:27:08,15.08838432,0.0001112,53.2147,148.6877,85.8405,274.2714,8.739e-05,1.103e-05,0.0,0 STARLINK-4517,1 53390U 22097C   23036.51884684  .00001103  00000-0  87390-4 0  9994,2 53390  53.2147 148.6877 0001112  85.8405 274.2714 15.08838432 27705,6917.885,95.438,540.519,538.981,0.0
53390.0,STARLINK-4517,PAYLOAD,2023-02-05 18:48:40,15.08847172,0.0001161,53.2149,147.4982,88.5091,271.6034,0.00064207,9.947e-05,0.0,0 STARLINK-4517,1 53390U 22097C   23036.78380651  .00009947  00000-0  64207-3 0  9993,2 53390  53.2149 147.4982 0001161  88.5091 271.6034 15.08847172 28546,6917.858,95.437,540.527,538.92,0.0
53390.0,STARLINK-4517,PAYLOAD,2023-02-06 10:42:32,15.0884591,0.0001197,53.2152,144.5247,90.1902,269.9227,0.00059822,9.247e-05,0.0,0 STARLINK-4517,1 53390U 22097C   23037.44620858  .00009247  00000-0  59822-3 0  9993,2 53390  53.2152 144.5247 0001197  90.1902 269.9227 15.08845910 27845,6917.862,95.437,540.555,538.899,0.0
53390.0,STARLINK-4517,PAYLOAD,2023-02-06 13:53:18,15.08852264,0.0001277,53.2155,143.9305,96.1989,263.9149,0.00071227,0.0001107,0.0,0 STARLINK-4517,1 53390U 22097C   23037.57868676  .00011070  00000-0  71227-3 0  9999,2 53390  53.2155 143.9305 0001277  96.1989 263.9149 15.08852264 28664,6917.843,95.437,540.591,538.824,0.0
53390.0,STARLINK-4517,PAYLOAD,2023-02-06 18:39:27,15.0887226,0.000117,53.2149,143.0374,88.2404,271.8722,0.0017923,0.00028377,0.0,0 STARLINK-4517,1 53390U 22097C   23037.77740277  .00028377  00000-0  17923-2 0  9997,2 53390  53.2149 143.0374 0001170  88.2404 271.8722 15.08872260 27897,6917.782,95.436,540.456,538.837,0.0
53390.0,STARLINK-4517,PAYLOAD,2023-02-07 13:44:04,15.08876225,0.0001198,53.2151,139.4702,114.234,245.8778,0.0023215,0.00036889,0.0,0 STARLINK-4517,1 53390U 22097C   23038.57227841  .00036889  00000-0  23215-2 0  9991,2 53390  53.2151 139.4702 0001198 114.2340 245.8778 15.08876225 28015,6917.77,95.435,540.463,538.806,0.0
53390.0,STARLINK-4517,PAYLOAD,2023-02-07 18:30:13,15.08898137,0.0001012,53.2148,138.5776,103.9437,256.1667,0.0030023,0.00047895,0.0,0 STARLINK-4517,1 53390U 22097C   23038.77099209  .00047895  00000-0  30023-2 0  9992,2 53390  53.2148 138.5776 0001012 103.9437 256.1667 15.08898137 28848,6917.703,95.434,540.268,538.868,0.0
53390.0,STARLINK-4517,PAYLOAD,2023-02-07 23:16:23,15.08846429,0.0001784,53.2152,137.6859,82.5747,277.5448,-1.1145e-05,-4.66e-06,0.0,0 STARLINK-4517,1 53390U 22097C   23038.96971925 -.00000466  00000-0 -11145-4 0  9998,2 53390  53.2152 137.6859 0001784  82.5747 277.5448 15.08846429 28073,6917.861,95.437,540.96,538.492,0.0
53390.0,STARLINK-4517,PAYLOAD,2023-02-08 11:59:29,15.08844677,0.0001111,53.2149,135.3066,84.2551,275.8567,0.0016711,0.00026411,0.0,0 STARLINK-4517,1 53390U 22097C   23039.49964140  .00026411  00000-0  16711-2 0  9996,2 53390  53.2149 135.3066 0001111  84.2551 275.8567 15.08844677 28953,6917.866,95.437,540.5,538.963,0.0
53390.0,STARLINK-4517,PAYLOAD,2023-02-08 16:45:38,15.08848839,0.0001651,53.2157,134.4169,67.3323,292.7844,0.0018647,0.00029521,0.0,0 STARLINK-4517,1 53390U 22097C   23039.69836337  .00029521  00000-0  18647-2 0  9999,2 53390  53.2157 134.4169 0001651  67.3323 292.7844 15.08848839 28987,6917.853,95.437,540.861,538.576,0.0
53390.0,STARLINK-4517,PAYLOAD,2023-02-09 05:28:44,15.08829606,0.0001098,53.2148,132.037,105.2704,254.8409,0.00044752,6.84e-05,0.0,0 STARLINK-4517,1 53390U 22097C   23040.22828868  .00006840  00000-0  44752-3 0  9996,2 53390  53.2148 132.0370 0001098 105.2704 254.8409 15.08829606 28263,6917.912,95.438,540.537,539.018,0.0
